SPHEREX (MIDEX 9)       
1 63182U 25047E   25134.49728756  .00001141  00000+0  18577-3 0  9998
2 63182  97.9562 322.0865 0011426  37.8113 322.3895 14.72863454  9334
